{
  "type": "FeatureCollection",
  "features": [
    {
      "type": "Feature",
      "properties": {
        "norad_id": 43207,
        "name": "BEIDOU-3 M4 (C22)",
        "group": "beidou",
        "lat": -31.05266657092498,
        "lon": -87.11256416583228,
        "alt_km": 21542.524175232666,
        "timestamp": "2025-12-09T23:33:24.119651+00:00",
        "meta_object_name": "BEIDOU-3 M4 (C22)",
        "meta_object_id": "2018-018A",
        "meta_epoch": "2025-12-06T10:25:28.940736",
        "meta_mean_motion": 1.86230708,
        "meta_eccentricity": 0.00041784,
        "meta_inclination": 56.4806,
        "meta_ra_of_asc_node": 69.5126,
        "meta_arg_of_pericenter": 11.9666,
        "meta_mean_anomaly": 348.0575,
        "meta_ephemeris_type": 0,
        "meta_classification_type": "U",
        "meta_norad_cat_id": 43207,
        "meta_element_set_no": 999,
        "meta_rev_at_epoch": 5315,
        "meta_bstar": 0,
        "meta_mean_motion_dot": -4.5e-07,
        "meta_mean_motion_ddot": 0,
        "tle_line1": "1 43207U 18018A   25340.43436274 -.00000045  00000+0  00000+0 0  9999",
        "tle_line2": "2 43207  56.4806  69.5126 0004178  11.9666 348.0575  1.86230708 53156"
      },
      "geometry": {
        "type": "Point",
        "coordinates": [
          -87.11256416583228,
          -31.05266657092498
        ]
      }
    },
    {
      "type": "Feature",
      "properties": {
        "norad_id": 43208,
        "name": "BEIDOU-3 M3 (C21)",
        "group": "beidou",
        "lat": 5.385818641906923,
        "lon": -114.1688580770679,
        "alt_km": 21542.214033016593,
        "timestamp": "2025-12-09T23:33:24.119663+00:00",
        "meta_object_name": "BEIDOU-3 M3 (C21)",
        "meta_object_id": "2018-018B",
        "meta_epoch": "2025-12-09T04:27:22.129920",
        "meta_mean_motion": 1.86231192,
        "meta_eccentricity": 0.0006468,
        "meta_inclination": 56.4827,
        "meta_ra_of_asc_node": 69.4258,
        "meta_arg_of_pericenter": 317.3873,
        "meta_mean_anomaly": 42.5846,
        "meta_ephemeris_type": 0,
        "meta_classification_type": "U",
        "meta_norad_cat_id": 43208,
        "meta_element_set_no": 999,
        "meta_rev_at_epoch": 5320,
        "meta_bstar": 0,
        "meta_mean_motion_dot": -4.7e-07,
        "meta_mean_motion_ddot": 0,
        "tle_line1": "1 43208U 18018B   25343.18567280 -.00000047  00000+0  00000+0 0  9999",
        "tle_line2": "2 43208  56.4827  69.4258 0006468 317.3873  42.5846  1.86231192 53203"
      },
      "geometry": {
        "type": "Point",
        "coordinates": [
          -114.1688580770679,
          5.385818641906923
        ]
      }
    },
    {
      "type": "Feature",
      "properties": {
        "norad_id": 43245,
        "name": "BEIDOU-3 M9 (C29)",
        "group": "beidou",
        "lat": 22.951488771282456,
        "lon": -35.78712092915785,
        "alt_km": 21527.51916499692,
        "timestamp": "2025-12-09T23:33:24.119675+00:00",
        "meta_object_name": "BEIDOU-3 M9 (C29)",
        "meta_object_id": "2018-029A",
        "meta_epoch": "2025-12-09T09:38:36.109248",
        "meta_mean_motion": 1.86227964,
        "meta_eccentricity": 0.00016746,
        "meta_inclination": 54.3687,
        "meta_ra_of_asc_node": 306.5834,
        "meta_arg_of_pericenter": 274.0787,
        "meta_mean_anomaly": 85.8921,
        "meta_ephemeris_type": 0,
        "meta_classification_type": "U",
        "meta_norad_cat_id": 43245,
        "meta_element_set_no": 999,
        "meta_rev_at_epoch": 5236,
        "meta_bstar": 0,
        "meta_mean_motion_dot": -7.6e-07,
        "meta_mean_motion_ddot": 0,
        "tle_line1": "1 43245U 18029A   25343.40180682 -.00000076  00000+0  00000+0 0  9996",
        "tle_line2": "2 43245  54.3687 306.5834 0001674 274.0787  85.8921  1.86227964 52369"
      },
      "geometry": {
        "type": "Point",
        "coordinates": [
          -35.78712092915785,
          22.951488771282456
        ]
      }
    },
    {
      "type": "Feature",
      "properties": {
        "norad_id": 43246,
        "name": "BEIDOU-3 M10 (C30)",
        "group": "beidou",
        "lat": 50.67446551219749,
        "lon": 7.608193719294705,
        "alt_km": 21519.067925103092,
        "timestamp": "2025-12-09T23:33:24.119687+00:00",
        "meta_object_name": "BEIDOU-3 M10 (C30)",
        "meta_object_id": "2018-029B",
        "meta_epoch": "2025-12-09T08:05:23.415648",
        "meta_mean_motion": 1.86228788,
        "meta_eccentricity": 0.00039729,
        "meta_inclination": 54.3665,
        "meta_ra_of_asc_node": 306.6138,
        "meta_arg_of_pericenter": 359.0444,
        "meta_mean_anomaly": 0.9446,
        "meta_ephemeris_type": 0,
        "meta_classification_type": "U",
        "meta_norad_cat_id": 43246,
        "meta_element_set_no": 999,
        "meta_rev_at_epoch": 5234,
        "meta_bstar": 0,
        "meta_mean_motion_dot": -7.6e-07,
        "meta_mean_motion_ddot": 0,
        "tle_line1": "1 43246U 18029B   25343.33707657 -.00000076  00000+0  00000+0 0  9996",
        "tle_line2": "2 43246  54.3665 306.6138 0003972 359.0444   0.9446  1.86228788 52344"
      },
      "geometry": {
        "type": "Point",
        "coordinates": [
          7.608193719294705,
          50.67446551219749
        ]
      }
    },
    {
      "type": "Feature",
      "properties": {
        "norad_id": 43539,
        "name": "BEIDOU-2 IGSO-7 (C16)",
        "group": "beidou",
        "lat": 15.744789794059551,
        "lon": 176.02115094116493,
        "alt_km": 36103.4684176382,
        "timestamp": "2025-12-09T23:33:24.119699+00:00",
        "meta_object_name": "BEIDOU-2 IGSO-7 (C16)",
        "meta_object_id": "2018-057A",
        "meta_epoch": "2025-12-09T10:39:54.393984",
        "meta_mean_motion": 1.00258071,
        "meta_eccentricity": 0.0092596,
        "meta_inclination": 55.1734,
        "meta_ra_of_asc_node": 164.6998,
        "meta_arg_of_pericenter": 235.2278,
        "meta_mean_anomaly": 309.5847,
        "meta_ephemeris_type": 0,
        "meta_classification_type": "U",
        "meta_norad_cat_id": 43539,
        "meta_element_set_no": 999,
        "meta_rev_at_epoch": 2722,
        "meta_bstar": 0,
        "meta_mean_motion_dot": -6.9e-07,
        "meta_mean_motion_ddot": 0,
        "tle_line1": "1 43539U 18057A   25343.44437956 -.00000069  00000+0  00000+0 0  9998",
        "tle_line2": "2 43539  55.1734 164.6998 0092596 235.2278 309.5847  1.00258071 27227"
      },
      "geometry": {
        "type": "Point",
        "coordinates": [
          176.02115094116493,
          15.744789794059551
        ]
      }
    },
    {
      "type": "Feature",
      "properties": {
        "norad_id": 43581,
        "name": "BEIDOU-3 M5 (C23)",
        "group": "beidou",
        "lat": -52.52823105413478,
        "lon": 117.74190953606154,
        "alt_km": 21532.120920740057,
        "timestamp": "2025-12-09T23:33:24.119711+00:00",
        "meta_object_name": "BEIDOU-3 M5 (C23)",
        "meta_object_id": "2018-062A",
        "meta_epoch": "2025-12-07T09:56:06.099936",
        "meta_mean_motion": 1.86228656,
        "meta_eccentricity": 0.00021227,
        "meta_inclination": 54.0892,
        "meta_ra_of_asc_node": 188.8244,
        "meta_arg_of_pericenter": 353.0314,
        "meta_mean_anomaly": 7.0363,
        "meta_ephemeris_type": 0,
        "meta_classification_type": "U",
        "meta_norad_cat_id": 43581,
        "meta_element_set_no": 999,
        "meta_rev_at_epoch": 5006,
        "meta_bstar": 0,
        "meta_mean_motion_dot": 5.9e-07,
        "meta_mean_motion_ddot": 0,
        "tle_line1": "1 43581U 18062A   25341.41395949  .00000059  00000+0  00000+0 0  9999",
        "tle_line2": "2 43581  54.0892 188.8244 0002122 353.0314   7.0363  1.86228656 50066"
      },
      "geometry": {
        "type": "Point",
        "coordinates": [
          117.74190953606154,
          -52.52823105413478
        ]
      }
    },
    {
      "type": "Feature",
      "properties": {
        "norad_id": 43582,
        "name": "BEIDOU-3 M6 (C24)",
        "group": "beidou",
        "lat": 10.685231778926065,
        "lon": -163.406983720632,
        "alt_km": 21508.81522321325,
        "timestamp": "2025-12-09T23:33:24.119723+00:00",
        "meta_object_name": "BEIDOU-3 M6 (C24)",
        "meta_object_id": "2018-062B",
        "meta_epoch": "2025-12-07T19:32:10.570272",
        "meta_mean_motion": 1.86229692,
        "meta_eccentricity": 0.00077761,
        "meta_inclination": 54.0886,
        "meta_ra_of_asc_node": 188.7999,
        "meta_arg_of_pericenter": 46.2812,
        "meta_mean_anomaly": 313.8511,
        "meta_ephemeris_type": 0,
        "meta_classification_type": "U",
        "meta_norad_cat_id": 43582,
        "meta_element_set_no": 999,
        "meta_rev_at_epoch": 5007,
        "meta_bstar": 0,
        "meta_mean_motion_dot": 5.5e-07,
        "meta_mean_motion_ddot": 0,
        "tle_line1": "1 43582U 18062B   25341.81401123  .00000055  00000+0  00000+0 0  9992",
        "tle_line2": "2 43582  54.0886 188.7999 0007776  46.2812 313.8511  1.86229692 50075"
      },
      "geometry": {
        "type": "Point",
        "coordinates": [
          -163.406983720632,
          10.685231778926065
        ]
      }
    }
  ]
}